From:	Horizons Ephemeris System <horizons@ssd.jpl.nasa.gov>
Sent:	Wednesday, March 4, 2020 10:01 AM
Subject:	[Horizons] MAJOR BODY #C(usr={0.,40.,.600^G}@301)_T(301) (1/1)

 Automated mail xmit by MAIL_REQUEST, PID= 9614 Wed Mar  4 08:00:30 2020
++++++++++++++++++++++++++++++++ (part 1 of 1)  +++++++++++++++++++++++++++++++
*******************************************************************************
 Revised: July 31, 2013             Moon / (Earth)                          301
 
 GEOPHYSICAL DATA (updated 2018-Aug-15):
  Vol. mean radius, km  = 1737.53+-0.03    Mass, x10^22 kg       =    7.349
  Radius (gravity), km  = 1738.0           Surface emissivity    =    0.92
  Radius (IAU), km      = 1737.4           GM, km^3/s^2          = 4902.800066
  Density, g/cm^3       =    3.3437        GM 1-sigma, km^3/s^2  =  +-0.0001  
  V(1,0)                =   +0.21          Surface accel., m/s^2 =    1.62
  Earth/Moon mass ratio = 81.3005690769    Farside crust. thick. = ~80 - 90 km
  Mean crustal density  = 2.97+-.07 g/cm^3 Nearside crust. thick.= 58+-8 km 
  Heat flow, Apollo 15  = 3.1+-.6 mW/m^2   Mean angular diameter = 31'05.2"
  Heat flow, Apollo 17  = 2.2+-.5 mW/m^2   Sid. rot. rate, rad/s = 0.0000026617
  Geometric Albedo      = 0.12             Mean solar day        = 29.5306 d
  Obliquity to orbit    = 6.67 deg         Orbit period          = 27.321582 d
  Semi-major axis, a    = 384400 km        Eccentricity          = 0.05490
  Mean motion, rad/s    = 2.6616995x10^-6  Inclination           = 5.145 deg
  Apsidal period        = 3231.50 d        Nodal period          = 6798.38 d
                                 Perihelion  Aphelion    Mean
  Solar Constant (W/m^2)         1414+-7     1323+-7     1368+-7
  Maximum Planetary IR (W/m^2)   1314        1226        1268
  Minimum Planetary IR (W/m^2)      5.2         5.2         5.2
 *******************************************************************************
 
 
*******************************************************************************
Ephemeris / MAIL_REQUEST Wed Mar  4 08:00:29 2020 Pasadena, USA  / Horizons    
*******************************************************************************
Target body name: Moon (301)                      {source: DE431mx}
Center body name: Moon (301)                      {source: DE431mx}
Center-site name: (user defined site below)
*******************************************************************************
Start time      : A.D. 2020-Jan-01 00:00:00.0000 TDB
Stop  time      : A.D. 2039-Jan-01 00:00:00.0000 TDB
Step-size       : 10000 steps
*******************************************************************************
Center geodetic : 0.00000000,40.0000000,0.6000000 {E-lon(deg),Lat(deg),Alt(km)}
Center cylindric: 0.00000000,1331.38524,1117.1649 {E-lon(deg),Dxy(km),Dz(km)}
Center pole/equ : IAU_MOON                        {East-longitude positive}
Center radii    : 1737.4 x 1737.4 x 1737.4 km     {Equator, meridian, pole}    
Output units    : KM-S                                                         
Output type     : GEOMETRIC cartesian states
Output format   : 3 (position, velocity, LT, range, range-rate)
Reference frame : ICRF/J2000.0                                                 
Coordinate systm: Ecliptic and Mean Equinox of Reference Epoch                 
*******************************************************************************
JDTDB
   X     Y     Z
   VX    VY    VZ
   LT    RG    RR
*******************************************************************************
$$SOE
2462440.950000002 = A.D. 2029-Oct-31 10:48:00.0001 TDB 
  -1.148971750200917E+03  7.210794163241683E+02 -1.086532278670928E+03
  -1.915835023860225E-03 -2.979176308315763E-03  4.879524333932235E-05
   5.797343974543882E-03  1.738000000000000E+03 -6.787180458367255E-20
2462441.644000001 = A.D. 2029-Nov-01 03:27:21.6001 TDB 
  -1.249138955711953E+03  5.340498329934860E+02 -1.084014135148837E+03
  -1.418114900354054E-03 -3.245883542627052E-03  3.501707276753379E-05
   5.797343974543884E-03  1.738000000000000E+03  1.796606591920744E-19
2462442.338000001 = A.D. 2029-Nov-01 20:06:43.2001 TDB 
  -1.318315587512178E+03  3.334736458361739E+02 -1.082350839263846E+03
  -8.843503338286435E-04 -3.430059567147569E-03  2.034309007505021E-05
   5.797343974543884E-03  1.738000000000000E+03  8.583787050287997E-20
2462443.032000002 = A.D. 2029-Nov-02 12:46:04.8001 TDB 
  -1.354743541785085E+03  1.244506989941787E+02 -1.081584929402895E+03
  -3.281136490305527E-04 -3.527024619140278E-03  5.149080412084625E-06
   5.797343974543883E-03  1.738000000000000E+03  1.467228716735274E-19
2462443.726000002 = A.D. 2029-Nov-03 05:25:26.4001 TDB 
  -1.357497403974671E+03 -8.770460553933759E+01 -1.081735966106896E+03
   2.364524476401920E-04 -3.534317105256158E-03 -1.017595477314907E-05
   5.797343974543884E-03  1.738000000000000E+03 -1.796606591920744E-20
2462444.420000001 = A.D. 2029-Nov-03 22:04:48.0001 TDB 
  -1.326507910079793E+03 -2.975984664486922E+02 -1.082800035677468E+03
   7.949947312100988E-04 -3.451755838533157E-03 -2.523970670361927E-05
   5.797343974543883E-03  1.738000000000000E+03 -2.155927910304893E-19
2462445.114000001 = A.D. 2029-Nov-04 14:44:09.6001 TDB 
  -1.262563626873027E+03 -4.998948366305294E+02 -1.084749851535996E+03
   1.333314547947283E-03 -3.281444209617331E-03 -3.965654780143778E-05
   5.797343974543884E-03  1.738000000000000E+03  9.981147732893020E-20
2462445.808000002 = A.D. 2029-Nov-05 07:23:31.2001 TDB 
  -1.167290816569292E+03 -6.894510807294492E+02 -1.087535450840105E+03
   1.837728828225418E-03 -3.027716230778485E-03 -5.305735738111604E-05
   5.797343974543883E-03  1.738000000000000E+03  1.277586909810307E-19
2462446.502000001 = A.D. 2029-Nov-06 00:02:52.8001 TDB 
  -1.043112006965636E+03 -8.614486865192450E+02 -1.091085469346188E+03
   2.295417837563669E-03 -2.697025873632959E-03 -6.509894321916811E-05
   5.797343974543883E-03  1.738000000000000E+03  7.186426367682975E-20
2462447.196000001 = A.D. 2029-Nov-06 16:42:14.4001 TDB 
  -8.931843293720328E+02 -1.011515708720415E+03 -1.095308963158829E+03
   2.694750833584686E-03 -2.297782562545906E-03 -7.547282242868335E-05
   5.797343974543883E-03  1.738000000000000E+03  6.707331276504110E-19
2462447.890000002 = A.D. 2029-Nov-07 09:21:36.0001 TDB 
  -7.213192000920183E+02 -1.135837836766154E+03 -1.100097732089743E+03
   3.025581372062748E-03 -1.840137049435129E-03 -8.391313501810826E-05
   5.797343974543885E-03  1.738000000000000E+03 -4.711101729925505E-19
2462448.584000002 = A.D. 2029-Nov-08 02:00:57.6001 TDB 
  -5.318853938213672E+02 -1.231255269621296E+03 -1.105329086231462E+03
   3.279504788160405E-03 -1.335723148275737E-03 -9.020348053993810E-05
   5.797343974543885E-03  1.738000000000000E+03 -7.984918186314415E-20
2462449.278000001 = A.D. 2029-Nov-08 18:40:19.2001 TDB 
  -3.296979772589646E+02 -1.295342943333988E+03 -1.110868985500175E+03
   3.450071348718182E-03 -7.973619181985058E-04 -9.418249353923341E-05
   5.797343974543883E-03  1.738000000000000E+03 -2.076078728441748E-19
2462449.972000001 = A.D. 2029-Nov-09 11:19:40.8001 TDB 
  -1.198959280672639E+02 -1.326472081188575E+03 -1.116575471815560E+03
   3.532949703249640E-03 -2.387358256110799E-04 -9.574800694810357E-05
   5.797343974543885E-03  1.738000000000000E+03  3.193967274525766E-20
2462450.666000002 = A.D. 2029-Nov-10 03:59:02.4001 TDB 
   9.218845092211822E+01 -1.323851511354444E+03 -1.122302305709623E+03
   3.526036526558644E-03  3.259588353182233E-04 -9.485969239794240E-05
   5.797343974543884E-03  1.738000000000000E+03  4.790950911788650E-20
2462451.360000001 = A.D. 2029-Nov-10 20:38:24.0001 TDB 
   3.011650066199540E+02 -1.287547710579758E+03 -1.127902713787154E+03
   3.429509612015492E-03  8.823724463345467E-04 -9.154010969987666E-05
   5.797343974543883E-03  1.738000000000000E+03 -7.984918186314419E-21
2462452.054000001 = A.D. 2029-Nov-11 13:17:45.6001 TDB 
   5.017226624040178E+02 -1.218483071758488E+03 -1.133233150710049E+03
   3.245823106429911E-03  1.416366361087588E-03 -8.587414132910467E-05
   5.797343974543884E-03  1.738000000000000E+03  1.676832819126027E-19
2462452.748000002 = A.D. 2029-Nov-12 05:57:07.2001 TDB 
   6.887643246114947E+02 -1.118412444434111E+03 -1.138156979189333E+03
   2.979645038150978E-03  1.914371777754292E-03 -7.800682933301484E-05
   5.797343974543883E-03  1.738000000000000E+03  2.874570547073190E-19
2462453.442000001 = A.D. 2029-Nov-12 22:36:28.8001 TDB 
   8.575363495242547E+02 -9.898785466224757E+02 -1.142547973689153E+03
   2.637738742263801E-03  2.363734119578367E-03 -6.813967084394262E-05
   5.797343974543883E-03  1.738000000000000E+03  3.193967274525767E-20
2462454.136000001 = A.D. 2029-Nov-13 15:15:50.4001 TDB 
   1.003749290244045E+03 -8.361473800602049E+02 -1.146293558017766E+03
   2.228791194543351E-03  2.753034226680366E-03 -5.652546485722322E-05
   5.797343974543884E-03  1.738000000000000E+03  4.790950911788650E-19
2462454.830000001 = A.D. 2029-Nov-14 07:55:12.0001 TDB 
   1.123686863769508E+03 -6.611252859200664E+02 -1.149297693597685E+03
   1.763192595428925E-03  3.072378248784900E-03 -4.346183820051037E-05
   5.797343974543884E-03  1.738000000000000E+03  2.315626274031181E-19
2462455.524000002 = A.D. 2029-Nov-15 00:34:33.6001 TDB 
   1.214300376134480E+03 -4.692597417195424E+02 -1.151483343918169E+03
   1.252772765727102E-03  3.313648913755952E-03 -2.928361314386810E-05
   5.797343974543884E-03  1.738000000000000E+03  3.034268910799478E-19
2462456.218000001 = A.D. 2029-Nov-15 17:13:55.2001 TDB 
   1.273286210150549E+03 -2.654264113371254E+02 -1.152794451411503E+03
   7.105009995856005E-04  3.470711811814214E-03 -1.435421197979554E-05
   5.797343974543885E-03  1.738000000000000E+03 -1.537096750865525E-19
